[{"OBJECT_NAME":"ONEWEB-0576","OBJECT_ID":"2023-043V","EPOCH":"2025-09-20T01:03:56.839968","MEAN_MOTION":13.16594604,"ECCENTRICITY":0.0002091,"INCLINATION":87.8984,"RA_OF_ASC_NODE":282.6035,"ARG_OF_PERICENTER":91.386,"MEAN_ANOMALY":268.751,"EPHEMERIS_TYPE":0,"CLASSIFICATION_TYPE":"U","NORAD_CAT_ID":56065,"ELEMENT_SET_NO":999,"REV_AT_EPOCH":12341,"BSTAR":0.00029670293,"MEAN_MOTION_DOT":1.26e-6,"MEAN_MOTION_DDOT":0},{"OBJECT_NAME":"ONEWEB-0577","OBJECT_ID":"2023-043W","EPOCH":"2025-09-20T01:13:04.175328","MEAN_MOTION":13.16594379,"ECCENTRICITY":0.00022843,"INCLINATION":87.8982,"RA_OF_ASC_NODE":282.6033,"ARG_OF_PERICENTER":78.0601,"MEAN_ANOMALY":282.0786,"EPHEMERIS_TYPE":0,"CLASSIFICATION_TYPE":"U","NORAD_CAT_ID":56066,"ELEMENT_SET_NO":999,"REV_AT_EPOCH":12344,"BSTAR":0.00034943735,"MEAN_MOTION_DOT":1.46e-6,"MEAN_MOTION_DDOT":0},{"OBJECT_NAME":"ONEWEB-0578","OBJECT_ID":"2023-043X","EPOCH":"2025-09-19T15:22:05.410560","MEAN_MOTION":13.21825624,"ECCENTRICITY":0.00021719,"INCLINATION":87.9196,"RA_OF_ASC_NODE":297.965,"ARG_OF_PERICENTER":96.597,"MEAN_ANOMALY":263.5411,"EPHEMERIS_TYPE":0,"CLASSIFICATION_TYPE":"U","NORAD_CAT_ID":56067,"ELEMENT_SET_NO":999,"REV_AT_EPOCH":12249,"BSTAR":1.139617e-6,"MEAN_MOTION_DOT":1.3e-7,"MEAN_MOTION_DDOT":0},{"OBJECT_NAME":"ONEWEB-0579","OBJECT_ID":"2023-043Y","EPOCH":"2025-09-19T20:35:28.656384","MEAN_MOTION":13.2182543,"ECCENTRICITY":0.00016387,"INCLINATION":87.9197,"RA_OF_ASC_NODE":297.9084,"ARG_OF_PERICENTER":93.2661,"MEAN_ANOMALY":266.866,"EPHEMERIS_TYPE":0,"CLASSIFICATION_TYPE":"U","NORAD_CAT_ID":56068,"ELEMENT_SET_NO":999,"REV_AT_EPOCH":12253,"BSTAR":9.7002637e-5,"MEAN_MOTION_DOT":5.3e-7,"MEAN_MOTION_DDOT":0},{"OBJECT_NAME":"ONEWEB-0581","OBJECT_ID":"2023-043Z","EPOCH":"2025-09-19T23:32:43.842336","MEAN_MOTION":13.16596365,"ECCENTRICITY":0.00019269,"INCLINATION":87.8966,"RA_OF_ASC_NODE":282.6359,"ARG_OF_PERICENTER":78.0781,"MEAN_ANOMALY":282.0566,"EPHEMERIS_TYPE":0,"CLASSIFICATION_TYPE":"U","NORAD_CAT_ID":56069,"ELEMENT_SET_NO":999,"REV_AT_EPOCH":12340,"BSTAR":0.00017737906,"MEAN_MOTION_DOT":8.1e-7,"MEAN_MOTION_DDOT":0},{"OBJECT_NAME":"ONEWEB-0609","OBJECT_ID":"2023-043AA","EPOCH":"2025-09-19T21:01:28.211808","MEAN_MOTION":13.15550015,"ECCENTRICITY":0.00018931,"INCLINATION":87.9024,"RA_OF_ASC_NODE":313.1582,"ARG_OF_PERICENTER":99.658,"MEAN_ANOMALY":260.4764,"EPHEMERIS_TYPE":0,"CLASSIFICATION_TYPE":"U","NORAD_CAT_ID":56070,"ELEMENT_SET_NO":999,"REV_AT_EPOCH":12089,"BSTAR":-0.00012032416,"MEAN_MOTION_DOT":-3.2e-7,"MEAN_MOTION_DDOT":0},{"OBJECT_NAME":"ONEWEB-0613","OBJECT_ID":"2023-043AB","EPOCH":"2025-09-19T20:54:37.461888","MEAN_MOTION":13.15548248,"ECCENTRICITY":0.00018012,"INCLINATION":87.9053,"RA_OF_ASC_NODE":313.1719,"ARG_OF_PERICENTER":100.3078,"MEAN_ANOMALY":259.8255,"EPHEMERIS_TYPE":0,"CLASSIFICATION_TYPE":"U","NORAD_CAT_ID":56071,"ELEMENT_SET_NO":999,"REV_AT_EPOCH":12089,"BSTAR":-0.00043694109,"MEAN_MOTION_DOT":-1.52e-6,"MEAN_MOTION_DDOT":0},{"OBJECT_NAME":"ONEWEB-0630","OBJECT_ID":"2023-043AC","EPOCH":"2025-09-19T20:47:45.783168","MEAN_MOTION":13.15549005,"ECCENTRICITY":0.00016116,"INCLINATION":87.9019,"RA_OF_ASC_NODE":313.1474,"ARG_OF_PERICENTER":100.8458,"MEAN_ANOMALY":259.2853,"EPHEMERIS_TYPE":0,"CLASSIFICATION_TYPE":"U","NORAD_CAT_ID":56072,"ELEMENT_SET_NO":999,"REV_AT_EPOCH":12088,"BSTAR":-0.00034592342,"MEAN_MOTION_DOT":-1.17e-6,"MEAN_MOTION_DDOT":0},{"OBJECT_NAME":"ONEWEB-0632","OBJECT_ID":"2023-043AD","EPOCH":"2025-09-19T17:01:51.276000","MEAN_MOTION":13.15560228,"ECCENTRICITY":0.00018413,"INCLINATION":87.9009,"RA_OF_ASC_NODE":313.1995,"ARG_OF_PERICENTER":104.8524,"MEAN_ANOMALY":255.2811,"EPHEMERIS_TYPE":0,"CLASSIFICATION_TYPE":"U","NORAD_CAT_ID":56073,"ELEMENT_SET_NO":999,"REV_AT_EPOCH":12086,"BSTAR":-0.0073221796,"MEAN_MOTION_DOT":-2.743e-5,"MEAN_MOTION_DDOT":0},{"OBJECT_NAME":"ONEWEB-0633","OBJECT_ID":"2023-043AE","EPOCH":"2025-09-19T20:31:46.756128","MEAN_MOTION":13.155499,"ECCENTRICITY":0.00015626,"INCLINATION":87.9015,"RA_OF_ASC_NODE":313.1332,"ARG_OF_PERICENTER":106.9046,"MEAN_ANOMALY":253.2256,"EPHEMERIS_TYPE":0,"CLASSIFICATION_TYPE":"U","NORAD_CAT_ID":56074,"ELEMENT_SET_NO":999,"REV_AT_EPOCH":12086,"BSTAR":-0.00021297659,"MEAN_MOTION_DOT":-6.7e-7,"MEAN_MOTION_DDOT":0},{"OBJECT_NAME":"ONEWEB-0634","OBJECT_ID":"2023-043AF","EPOCH":"2025-09-20T03:29:19.942080","MEAN_MOTION":13.15550222,"ECCENTRICITY":0.00020201,"INCLINATION":87.903,"RA_OF_ASC_NODE":313.1188,"ARG_OF_PERICENTER":107.4088,"MEAN_ANOMALY":252.7263,"EPHEMERIS_TYPE":0,"CLASSIFICATION_TYPE":"U","NORAD_CAT_ID":56075,"ELEMENT_SET_NO":999,"REV_AT_EPOCH":12089,"BSTAR":0.00037731613,"MEAN_MOTION_DOT":1.55e-6,"MEAN_MOTION_DDOT":0},{"OBJECT_NAME":"ONEWEB-0635","OBJECT_ID":"2023-043AG","EPOCH":"2025-09-20T03:22:30.888192","MEAN_MOTION":13.15548038,"ECCENTRICITY":0.00018717,"INCLINATION":87.9011,"RA_OF_ASC_NODE":313.0816,"ARG_OF_PERICENTER":88.9977,"MEAN_ANOMALY":271.1368,"EPHEMERIS_TYPE":0,"CLASSIFICATION_TYPE":"U","NORAD_CAT_ID":56076,"ELEMENT_SET_NO":999,"REV_AT_EPOCH":12092,"BSTAR":0.0004465873,"MEAN_MOTION_DOT":1.81e-6,"MEAN_MOTION_DDOT":0},{"OBJECT_NAME":"ONEWEB-0636","OBJECT_ID":"2023-043AH","EPOCH":"2025-09-19T21:42:31.322016","MEAN_MOTION":13.15549987,"ECCENTRICITY":0.00018707,"INCLINATION":87.9015,"RA_OF_ASC_NODE":313.1457,"ARG_OF_PERICENTER":90.0016,"MEAN_ANOMALY":270.1328,"EPHEMERIS_TYPE":0,"CLASSIFICATION_TYPE":"U","NORAD_CAT_ID":56077,"ELEMENT_SET_NO":999,"REV_AT_EPOCH":12087,"BSTAR":0.00060234963,"MEAN_MOTION_DOT":2.4e-6,"MEAN_MOTION_DDOT":0},{"OBJECT_NAME":"ONEWEB-0637","OBJECT_ID":"2023-043AJ","EPOCH":"2025-09-20T03:01:59.528352","MEAN_MOTION":13.15548888,"ECCENTRICITY":0.00021975,"INCLINATION":87.9017,"RA_OF_ASC_NODE":313.1148,"ARG_OF_PERICENTER":92.9361,"MEAN_ANOMALY":267.202,"EPHEMERIS_TYPE":0,"CLASSIFICATION_TYPE":"U","NORAD_CAT_ID":56078,"ELEMENT_SET_NO":999,"REV_AT_EPOCH":12092,"BSTAR":0.00039365624,"MEAN_MOTION_DOT":1.61e-6,"MEAN_MOTION_DDOT":0},{"OBJECT_NAME":"ONEWEB-0647","OBJECT_ID":"2023-043AK","EPOCH":"2025-09-20T02:55:06.827520","MEAN_MOTION":13.15549554,"ECCENTRICITY":0.00017179,"INCLINATION":87.902,"RA_OF_ASC_NODE":313.1287,"ARG_OF_PERICENTER":92.9553,"MEAN_ANOMALY":267.1773,"EPHEMERIS_TYPE":0,"CLASSIFICATION_TYPE":"U","NORAD_CAT_ID":56079,"ELEMENT_SET_NO":999,"REV_AT_EPOCH":12091,"BSTAR":0.00045680501,"MEAN_MOTION_DOT":1.85e-6,"MEAN_MOTION_DDOT":0},{"OBJECT_NAME":"ONEWEB-0651","OBJECT_ID":"2023-043AL","EPOCH":"2025-09-20T02:48:17.701920","MEAN_MOTION":13.1554791,"ECCENTRICITY":0.00020462,"INCLINATION":87.9023,"RA_OF_ASC_NODE":313.1214,"ARG_OF_PERICENTER":89.5969,"MEAN_ANOMALY":270.5396,"EPHEMERIS_TYPE":0,"CLASSIFICATION_TYPE":"U","NORAD_CAT_ID":56080,"ELEMENT_SET_NO":999,"REV_AT_EPOCH":12211,"BSTAR":0.00044885081,"MEAN_MOTION_DOT":1.82e-6,"MEAN_MOTION_DDOT":0},{"OBJECT_NAME":"ONEWEB-0718","OBJECT_ID":"2023-043AM","EPOCH":"2025-09-20T02:41:26.304864","MEAN_MOTION":13.1554938,"ECCENTRICITY":0.00022746,"INCLINATION":87.902,"RA_OF_ASC_NODE":313.1032,"ARG_OF_PERICENTER":109.5435,"MEAN_ANOMALY":250.5941,"EPHEMERIS_TYPE":0,"CLASSIFICATION_TYPE":"U","NORAD_CAT_ID":56081,"ELEMENT_SET_NO":999,"REV_AT_EPOCH":12092,"BSTAR":0.00024501444,"MEAN_MOTION_DOT":1.05e-6,"MEAN_MOTION_DDOT":0},{"OBJECT_NAME":"ONEWEB-0561","OBJECT_ID":"2023-068A","EPOCH":"2025-09-20T02:59:44.162016","MEAN_MOTION":13.20771177,"ECCENTRICITY":0.00017221,"INCLINATION":87.9255,"RA_OF_ASC_NODE":328.3011,"ARG_OF_PERICENTER":83.7088,"MEAN_ANOMALY":276.4242,"EPHEMERIS_TYPE":0,"CLASSIFICATION_TYPE":"U","NORAD_CAT_ID":56710,"ELEMENT_SET_NO":999,"REV_AT_EPOCH":11385,"BSTAR":0.00040833908,"MEAN_MOTION_DOT":1.79e-6,"MEAN_MOTION_DDOT":0},{"OBJECT_NAME":"ONEWEB-0668","OBJECT_ID":"2023-068B","EPOCH":"2025-09-19T23:36:10.695168","MEAN_MOTION":13.16593125,"ECCENTRICITY":0.00023494,"INCLINATION":87.8982,"RA_OF_ASC_NODE":282.6098,"ARG_OF_PERICENTER":99.6472,"MEAN_ANOMALY":260.4924,"EPHEMERIS_TYPE":0,"CLASSIFICATION_TYPE":"U","NORAD_CAT_ID":56711,"ELEMENT_SET_NO":999,"REV_AT_EPOCH":11622,"BSTAR":0.00025170099,"MEAN_MOTION_DOT":1.09e-6,"MEAN_MOTION_DDOT":0},{"OBJECT_NAME":"ONEWEB-0676","OBJECT_ID":"2023-068C","EPOCH":"2025-09-20T02:46:31.029888","MEAN_MOTION":13.16594737,"ECCENTRICITY":0.00018402,"INCLINATION":87.8974,"RA_OF_ASC_NODE":282.6017,"ARG_OF_PERICENTER":81.64,"MEAN_ANOMALY":278.494,"EPHEMERIS_TYPE":0,"CLASSIFICATION_TYPE":"U","NORAD_CAT_ID":56712,"ELEMENT_SET_NO":999,"REV_AT_EPOCH":11616,"BSTAR":0.00011554621,"MEAN_MOTION_DOT":5.7e-7,"MEAN_MOTION_DDOT":0},{"OBJECT_NAME":"ONEWEB-0677","OBJECT_ID":"2023-068D","EPOCH":"2025-09-20T02:43:49.254528","MEAN_MOTION":13.20771972,"ECCENTRICITY":0.00020494,"INCLINATION":87.926,"RA_OF_ASC_NODE":328.2798,"ARG_OF_PERICENTER":91.7303,"MEAN_ANOMALY":268.4065,"EPHEMERIS_TYPE":0,"CLASSIFICATION_TYPE":"U","NORAD_CAT_ID":56713,"ELEMENT_SET_NO":999,"REV_AT_EPOCH":11415,"BSTAR":0.00011680995,"MEAN_MOTION_DOT":6.0e-7,"MEAN_MOTION_DDOT":0},{"OBJECT_NAME":"ONEWEB-0678","OBJECT_ID":"2023-068E","EPOCH":"2025-09-20T03:45:18.842112","MEAN_MOTION":13.15549223,"ECCENTRICITY":0.00014835,"INCLINATION":87.9019,"RA_OF_ASC_NODE":313.0674,"ARG_OF_PERICENTER":95.9811,"MEAN_ANOMALY":264.1489,"EPHEMERIS_TYPE":0,"CLASSIFICATION_TYPE":"U","NORAD_CAT_ID":56714,"ELEMENT_SET_NO":999,"REV_AT_EPOCH":11378,"BSTAR":-9.7148192e-5,"MEAN_MOTION_DOT":-2.4e-7,"MEAN_MOTION_DDOT":0},{"OBJECT_NAME":"ONEWEB-0679","OBJECT_ID":"2023-068F","EPOCH":"2025-09-20T00:12:39.027456","MEAN_MOTION":13.16594834,"ECCENTRICITY":0.00023856,"INCLINATION":87.8975,"RA_OF_ASC_NODE":282.6155,"ARG_OF_PERICENTER":86.7528,"MEAN_ANOMALY":273.3876,"EPHEMERIS_TYPE":0,"CLASSIFICATION_TYPE":"U","NORAD_CAT_ID":56715,"ELEMENT_SET_NO":999,"REV_AT_EPOCH":11617,"BSTAR":3.4852952e-5,"MEAN_MOTION_DOT":2.6e-7,"MEAN_MOTION_DDOT":0}]
